{
  "norad_id": 45863,
  "name": "APSTAR-6D",
  "history": [
    {
      "epoch": "2026-03-26T20:49:49.877760",
      "apogee_km": 35797.25873244743,
      "perigee_km": 35777.16357082533,
      "latitude_deg": -0.04704716744540605,
      "longitude_deg": 97.62208639993332,
      "semi_major_axis_km": 42165.34815163638,
      "eccentricity": 0.00023829,
      "inclination_deg": 0.0494,
      "raan_deg": 96.8323,
      "arg_perigee_deg": 347.5742,
      "mean_anomaly_deg": 186.3728,
      "mean_motion_rev_day": 1.00269587
    }
  ]
}